NORAD_CAT_ID,OBJECT_NAME,OBJECT_TYPE,EPOCH,MEAN_MOTION,ECCENTRICITY,INCLINATION,RA_OF_ASC_NODE,ARG_OF_PERICENTER,MEAN_ANOMALY,BSTAR,MEAN_MOTION_DOT,MEAN_MOTION_DDOT,TLE_LINE0,TLE_LINE1,TLE_LINE2,SEMIMAJOR_AXIS,PERIOD,APOGEE,PERIGEE,DECAYED
50173.0,STARLINK-3289,PAYLOAD,2024-02-28 21:27:26,15.08834404,0.0001529,53.218,320.261,102.2208,257.8955,3.8969e-05,3.32e-06,0.0,0 STARLINK-3289,1 50173U 21125T   24059.89406202  .00000332  00000-0  38969-4 0  9995,2 50173  53.2180 320.2610 0001529 102.2208 257.8955 15.08834404125065,6917.897,95.438,540.82,538.705,0.0
50173.0,STARLINK-3289,PAYLOAD,2024-02-29 02:13:36,15.08839632,0.0001568,53.2181,319.3694,101.4948,258.622,0.00010755,1.424e-05,0.0,0 STARLINK-3289,1 50173U 21125T   24060.09277997  .00001424  00000-0  10755-3 0  9991,2 50173  53.2181 319.3694 0001568 101.4948 258.6220 15.08839632122005,6917.882,95.438,540.831,538.662,0.0
50173.0,STARLINK-3289,PAYLOAD,2024-02-29 21:18:14,15.0883381,0.000155,53.2175,315.8007,85.47,274.6469,0.00010433,1.373e-05,0.0,0 STARLINK-3289,1 50173U 21125T   24060.88766595  .00001373  00000-0  10433-3 0  9991,2 50173  53.2175 315.8007 0001550  85.4700 274.6469 15.08833810122123,6917.899,95.438,540.837,538.692,0.0
50173.0,STARLINK-3289,PAYLOAD,2024-02-29 22:53:37,15.08837024,0.0001584,53.2186,315.5036,92.7582,267.3592,5.5955e-05,6.03e-06,0.0,0 STARLINK-3289,1 50173U 21125T   24060.95390753  .00000603  00000-0  55955-4 0  9992,2 50173  53.2186 315.5036 0001584  92.7582 267.3592 15.08837024125221,6917.889,95.438,540.85,538.659,0.0
50173.0,STARLINK-3289,PAYLOAD,2024-03-01 10:01:19,15.08844772,0.0001423,53.2183,313.4222,90.3952,269.7203,8.0069e-05,9.87e-06,0.0,0 STARLINK-3289,1 50173U 21125T   24061.41758199  .00000987  00000-0  80069-4 0  9995,2 50173  53.2183 313.4222 0001423  90.3952 269.7203 15.08844772125299,6917.866,95.437,540.715,538.746,0.0
50173.0,STARLINK-3289,PAYLOAD,2024-03-01 21:09:00,15.08844729,0.0001485,53.2178,311.3376,87.1279,272.9883,0.00015217,2.135e-05,0.0,0 STARLINK-3289,1 50173U 21125T   24061.88126034  .00002135  00000-0  15217-3 0  9992,2 50173  53.2178 311.3376 0001485  87.1279 272.9883 15.08844729125364,6917.866,95.437,540.758,538.704,0.0
50173.0,STARLINK-3289,PAYLOAD,2024-03-02 00:19:46,15.08851926,0.0001333,53.2183,310.7436,96.1468,263.9676,0.00014531,2.026e-05,0.0,0 STARLINK-3289,1 50173U 21125T   24062.01373554  .00002026  00000-0  14531-3 0  9996,2 50173  53.2183 310.7436 0001333  96.1468 263.9676 15.08851926125381,6917.844,95.437,540.631,538.787,0.0
50173.0,STARLINK-3289,PAYLOAD,2024-03-02 22:35:11,15.08842111,0.000158,53.2176,306.5835,83.0737,277.0435,5.6764e-05,6.16e-06,0.0,0 STARLINK-3289,1 50173U 21125T   24062.94110247  .00000616  00000-0  56764-4 0  9994,2 50173  53.2176 306.5835 0001580  83.0737 277.0435 15.08842111125528,6917.874,95.437,540.832,538.646,0.0
50173.0,STARLINK-3289,PAYLOAD,2024-03-03 01:45:57,15.0884641,0.0001463,53.2184,305.9835,91.9275,268.1885,9.0683e-05,1.156e-05,0.0,0 STARLINK-3289,1 50173U 21125T   24063.07357810  .00001156  00000-0  90683-4 0  9996,2 50173  53.2184 305.9835 0001463  91.9275 268.1885 15.08846410122450,6917.861,95.437,540.738,538.714,0.0
50173.0,STARLINK-3289,PAYLOAD,2024-03-03 09:42:52,15.08844308,0.0001331,53.2181,304.4968,97.4336,262.6808,8.8866e-05,1.127e-05,0.0,0 STARLINK-3289,1 50173U 21125T   24063.40477951  .00001127  00000-0  88866-4 0  9990,2 50173  53.2181 304.4968 0001331  97.4336 262.6808 15.08844308125597,6917.867,95.437,540.653,538.811,0.0
50173.0,STARLINK-3289,PAYLOAD,2024-03-03 20:50:34,15.08849698,0.0001275,53.2184,302.4164,92.3627,267.7512,0.000124,1.687e-05,0.0,0 STARLINK-3289,1 50173U 21125T   24063.86845576  .00001687  00000-0  12400-3 0  9993,2 50173  53.2184 302.4164 0001275  92.3627 267.7512 15.08849698125663,6917.851,95.437,540.598,538.834,0.0
50173.0,STARLINK-3289,PAYLOAD,2024-03-04 01:36:43,15.08851821,0.0001461,53.2187,301.5214,92.6059,267.5101,0.00022508,3.297e-05,0.0,0 STARLINK-3289,1 50173U 21125T   24064.06717314  .00003297  00000-0  22508-3 0  9993,2 50173  53.2187 301.5214 0001461  92.6059 267.5101 15.08851821125697,6917.844,95.437,540.72,538.699,0.0
50173.0,STARLINK-3289,PAYLOAD,2024-03-04 20:41:21,15.08846807,0.0001728,53.2178,297.9532,117.6854,242.4313,0.0005485,8.454e-05,0.0,0 STARLINK-3289,1 50173U 21125T   24064.86205007  .00008454  00000-0  54850-3 0  9997,2 50173  53.2178 297.9532 0001728 117.6854 242.4313 15.08846807122721,6917.86,95.437,540.92,538.529,0.0
50173.0,STARLINK-3289,PAYLOAD,2024-03-04 22:16:43,15.08860824,0.0001308,53.216,297.657,86.8153,273.2989,0.00025825,3.827e-05,0.0,0 STARLINK-3289,1 50173U 21125T   24064.92828363  .00003827  00000-0  25825-3 0  9999,2 50173  53.2160 297.6570 0001308  86.8153 273.2989 15.08860824125824,6917.817,95.436,540.587,538.777,0.0
50173.0,STARLINK-3289,PAYLOAD,2024-03-05 01:27:29,15.08860921,0.0001349,53.2162,297.0622,87.8979,272.2167,0.00026917,4.001e-05,0.0,0 STARLINK-3289,1 50173U 21125T   24065.06076215  .00004001  00000-0  26917-3 0  9994,2 50173  53.2162 297.0622 0001349  87.8979 272.2167 15.08860921122754,6917.816,95.436,540.615,538.748,0.0
50173.0,STARLINK-3289,PAYLOAD,2024-03-05 20:32:08,15.08827434,0.0001423,53.2172,293.4939,102.6595,257.4556,-0.00029409,-4.964e-05,0.0,0 STARLINK-3289,1 50173U 21125T   24065.85565711 -.00004964  00000-0 -29409-3 0  9994,2 50173  53.2172 293.4939 0001423 102.6595 257.4556 15.08827434122871,6917.919,95.438,540.768,538.799,0.0
50173.0,STARLINK-3289,PAYLOAD,2024-03-05 22:07:31,15.0882729,0.0001242,53.2163,293.1973,86.9013,273.2121,-0.00031425,-5.284e-05,0.0,0 STARLINK-3289,1 50173U 21125T   24065.92189809 -.00005284  00000-0 -31425-3 0  9999,2 50173  53.2163 293.1973 0001242  86.9013 273.2121 15.08827290125972,6917.919,95.438,540.643,538.925,0.0
50173.0,STARLINK-3289,PAYLOAD,2024-03-06 20:22:56,15.08835873,0.0001197,53.216,289.0372,80.8796,279.2332,7.642e-05,9.28e-06,0.0,0 STARLINK-3289,1 50173U 21125T   24066.84926212  .00000928  00000-0  76420-4 0  9991,2 50173  53.2160 289.0372 0001197  80.8796 279.2332 15.08835873123026,6917.893,95.438,540.586,538.93,0.0
50173.0,STARLINK-3289,PAYLOAD,2024-03-07 07:30:38,15.08837673,0.0001159,53.2157,286.9572,82.7921,277.3203,0.00039031,5.929e-05,0.0,0 STARLINK-3289,1 50173U 21125T   24067.31294609  .00005929  00000-0  39031-3 0  9994,2 50173  53.2157 286.9572 0001159  82.7921 277.3203 15.08837673126185,6917.888,95.438,540.554,538.951,0.0
50173.0,STARLINK-3289,PAYLOAD,2024-03-08 13:42:58,15.08845509,0.0001309,53.2152,281.3079,85.7631,274.3511,0.00025491,3.772e-05,0.0,0 STARLINK-3289,1 50173U 21125T   24068.57150626  .00003772  00000-0  25491-3 0  9992,2 50173  53.2152 281.3079 0001309  85.7631 274.3511 15.08845509123283,6917.864,95.437,540.634,538.823,0.0
50173.0,STARLINK-3289,PAYLOAD,2024-03-09 13:33:45,15.08843749,0.0001449,53.2146,276.8461,84.7481,275.3676,0.00016381,2.32e-05,0.0,0 STARLINK-3289,1 50173U 21125T   24069.56510599  .00002320  00000-0  16381-3 0  9997,2 50173  53.2146 276.8461 0001449  84.7481 275.3676 15.08843749123431,6917.869,95.437,540.736,538.732,0.0
50173.0,STARLINK-3289,PAYLOAD,2024-03-09 19:55:17,15.08842549,0.000115,53.2134,275.6545,90.3405,269.7719,0.0001335,1.838e-05,0.0,0 STARLINK-3289,1 50173U 21125T   24069.83006516  .00001838  00000-0  13350-3 0  9992,2 50173  53.2134 275.6545 0001150  90.3405 269.7719 15.08842549126565,6917.873,95.437,540.533,538.942,0.0
50173.0,STARLINK-3289,PAYLOAD,2024-03-10 08:38:22,15.08844295,0.0001238,53.2133,273.2733,105.0894,255.0235,0.00014217,1.976e-05,0.0,0 STARLINK-3289,1 50173U 21125T   24070.35998429  .00001976  00000-0  14217-3 0  9990,2 50173  53.2133 273.2733 0001238 105.0894 255.0235 15.08844295126640,6917.867,95.437,540.589,538.876,0.0
50173.0,STARLINK-3289,PAYLOAD,2024-03-10 19:46:04,15.08842886,0.000126,53.2142,271.1941,86.4505,273.6631,0.00015936,2.249e-05,0.0,0 STARLINK-3289,1 50173U 21125T   24070.82366800  .00002249  00000-0  15936-3 0  9997,2 50173  53.2142 271.1941 0001260  86.4505 273.6631 15.08842886123629,6917.872,95.437,540.608,538.865,0.0
50173.0,STARLINK-3289,PAYLOAD,2024-03-11 13:15:19,15.08835687,9.19e-05,53.2158,267.9216,101.9198,258.1897,0.00030696,4.6e-05,0.0,0 STARLINK-3289,1 50173U 21125T   24071.55230996  .00004600  00000-0  30696-3 0  9997,2 50173  53.2158 267.9216 0000919 101.9198 258.1897 15.08835687123730,6917.894,95.438,540.394,539.123,0.0
50173.0,STARLINK-3289,PAYLOAD,2024-03-12 19:27:39,15.08841339,0.0001211,53.2142,262.2729,84.4605,275.6526,0.00012557,1.711e-05,0.0,0 STARLINK-3289,1 50173U 21125T   24072.81086876  .00001711  00000-0  12557-3 0  9999,2 50173  53.2142 262.2729 0001211  84.4605 275.6526 15.08841339127013,6917.876,95.437,540.579,538.904,0.0
50173.0,STARLINK-3289,PAYLOAD,2024-03-13 04:59:58,15.08838292,0.0001372,53.2143,260.4897,83.9084,276.2065,0.00025859,3.83e-05,0.0,0 STARLINK-3289,1 50173U 21125T   24073.20831054  .00003830  00000-0  25859-3 0  9992,2 50173  53.2143 260.4897 0001372  83.9084 276.2065 15.08838292123984,6917.886,95.438,540.7,538.801,0.0
50173.0,STARLINK-3289,PAYLOAD,2024-03-13 11:21:30,15.08842369,0.0001514,53.2115,259.2995,89.5268,270.5898,0.00012587,1.716e-05,0.0,0 STARLINK-3289,1 50173U 21125T   24073.47326770  .00001716  00000-0  12587-3 0  9990,2 50173  53.2115 259.2995 0001514  89.5268 270.5898 15.08842369127112,6917.873,95.437,540.786,538.691,0.0
50173.0,STARLINK-3289,PAYLOAD,2024-03-13 19:18:25,15.0884636,0.0001515,53.213,257.8122,88.3184,271.7981,0.00010825,1.436e-05,0.0,0 STARLINK-3289,1 50173U 21125T   24073.80446536  .00001436  00000-0  10825-3 0  9992,2 50173  53.2130 257.8122 0001515  88.3184 271.7981 15.08846360127166,6917.861,95.437,540.774,538.678,0.0
50173.0,STARLINK-3289,PAYLOAD,2024-03-14 04:50:44,15.08844254,0.0001287,53.2143,256.0287,86.5379,273.576,0.00014026,1.945e-05,0.0,0 STARLINK-3289,1 50173U 21125T   24074.20190575  .00001945  00000-0  14026-3 0  9998,2 50173  53.2143 256.0287 0001287  86.5379 273.5760 15.08844254127227,6917.867,95.437,540.623,538.842,0.0
